QIANFAN-33              
1 61566U 24185Q   25316.30970229  .00000929  00000+0  66243-3 0  9996
2 61566  88.9782  82.1943 0008581  69.0630 291.1464 13.96514305 64915
QIANFAN-34              
1 61567U 24185R   25316.32847731  .00000990  00000+0  63792-3 0  9994
2 61567  88.9759  81.7968 0007340  77.5157 282.6844 14.02265092 65093
QIANFAN-35              
1 61568U 24185S   25316.28432665  .00001941  00000+0  77846-3 0  9998
2 61568  88.9787  80.4482 0007592  41.2534 318.9233 14.27889860 65837
QIANFAN-36              
1 61569U 24185T   25316.33061338  .00000308  00000+0  42527-3 0  9994
2 61569  88.9766  84.2069 0007596 124.4096 235.7777 13.55574732 63802
QIANFAN-37              
1 62238U 24232B   25316.25579178  .00000275  00000+0  40737-3 0  9992
2 62238  89.0039  44.4006 0002107 126.3534 233.7812 13.50981534 95058
QIANFAN-38              
1 62239U 24232C   25316.28035741  .00000138  00000+0  19493-3 0  9992
2 62239  89.0045  44.3118 0012692 282.7069  77.2664 13.50970357 95113
QIANFAN-39              
1 62240U 24232D   25316.23668582  .00001351  00000+0  56671-3 0  9991
2 62240  89.0038  40.7918 0016788 171.3864 188.7620 14.25342832 97049
QIANFAN-40              
1 62241U 24232E   25316.31327607  .00000277  00000+0  41143-3 0  9995
2 62241  89.0073  43.8846 0011719 291.8194  68.1710 13.50976418 95483
